[{"OBJECT_NAME":"SKYSAT-C6","OBJECT_ID":"2017-068F","EPOCH":"2026-03-09T21:33:49.392576","MEAN_MOTION":15.32504544,"ECCENTRICITY":0.00036369,"INCLINATION":97.44,"RA_OF_ASC_NODE":205.7173,"ARG_OF_PERICENTER":127.5085,"MEAN_ANOMALY":232.6488,"EPHEMERIS_TYPE":0,"CLASSIFICATION_TYPE":"U","NORAD_CAT_ID":42992,"ELEMENT_SET_NO":999,"REV_AT_EPOCH":46710,"BSTAR":0.00039699196,"MEAN_MOTION_DOT":0.0001239,"MEAN_MOTION_DDOT":0},{"OBJECT_NAME":"STARLINK-34835","OBJECT_ID":"2025-189P","EPOCH":"2026-03-09T16:48:14.618016","MEAN_MOTION":15.30197171,"ECCENTRICITY":0.00012824,"INCLINATION":53.1609,"RA_OF_ASC_NODE":207.0333,"ARG_OF_PERICENTER":75.1205,"MEAN_ANOMALY":284.9938,"EPHEMERIS_TYPE":0,"CLASSIFICATION_TYPE":"U","NORAD_CAT_ID":65336,"ELEMENT_SET_NO":999,"REV_AT_EPOCH":3110,"BSTAR":0.0010560392,"MEAN_MOTION_DOT":0.00031046,"MEAN_MOTION_DDOT":0}]
